ONEWEB-0228             
1 48780U 21045P   26106.48873392 -.00000127  00000+0 -37063-3 0  9991
2 48780  87.8954 271.4832 0001874  93.4927 266.6418 13.15548052236212
ONEWEB-0232             
1 48781U 21045Q   26106.69141285  .00000243  00000+0  61169-3 0  9995
2 48781  87.8958 271.4451 0001759  93.6617 266.4715 13.15546128236562
ONEWEB-0231             
1 48782U 21045R   26106.74529259  .00000455  00000+0  11747-2 0  9994
2 48782  87.8935 271.4540 0002127  90.2743 269.8631 13.15546366236265
ONEWEB-0234             
1 48783U 21045S   26106.70712255 -.00000069  00000+0 -21612-3 0  9997
2 48783  87.8946 271.4401 0001074  77.2664 282.8586 13.15549195236392
ONEWEB-0238             
1 48784U 21045T   26106.70739712 -.00000075  00000+0 -23305-3 0  9993
2 48784  87.8937 271.4331 0001399  88.3759 271.7532 13.15548369236292
ONEWEB-0240             
1 48785U 21045U   26106.72864303 -.00000062  00000+0 -19821-3 0  9995
2 48785  87.8951 271.4370 0001898  85.0337 275.1010 13.15546556236321
ONEWEB-0246             
1 48786U 21045V   26106.72310084  .00000016  00000+0  85944-5 0  9996
2 48786  87.8947 271.4448 0001906  96.5991 263.5357 13.15548106236199
ONEWEB-0210             
1 48787U 21045W   26106.69774743  .00000000  00000+0 -33234-4 0  9997
2 48787  87.8950 271.4466 0002691  97.4277 262.7159 13.15547469236230
ONEWEB-0214             
1 48788U 21045X   26106.70644942 -.00000284  00000+0 -78970-3 0  9997
2 48788  87.8948 271.4409 0002176 100.6434 259.4941 13.15548868236208
ONEWEB-0221             
1 48789U 21045Y   26106.71359121 -.00000094  00000+0 -28328-3 0  9992
2 48789  87.8946 271.4491 0001956  90.9781 269.1574 13.15548287236293
ONEWEB-0213             
1 48790U 21045Z   26106.70249739 -.00000048  00000+0 -16251-3 0  9997
2 48790  87.8947 271.4551 0002096  92.2252 267.9119 13.15547355236350
ONEWEB-0212             
1 48791U 21045AA  26106.75556485  .00000273  00000+0  68996-3 0  9993
2 48791  87.8950 271.4390 0001713  95.1740 264.9585 13.15551326236352
ONEWEB-0227             
1 48792U 21045AB  26106.75478870  .00000183  00000+0  45165-3 0  9998
2 48792  87.8945 271.4411 0001829  92.5674 267.5665 13.15548871236300
ONEWEB-0226             
1 48793U 21045AC  26106.74844649  .00000241  00000+0  60504-3 0  9998
2 48793  87.8936 271.4486 0002117  95.4267 264.7105 13.15548372236274
ONEWEB-0224             
1 48794U 21045AD  26106.71200288 -.00000053  00000+0 -17502-3 0  9994
2 48794  87.8940 271.4918 0001661  65.9891 294.1413 13.15547076236198
ONEWEB-0233             
1 48795U 21045AE  26106.48845667 -.00000075  00000+0 -23331-3 0  9996
2 48795  87.8935 271.5450 0001972  87.6040 272.5316 13.15548526236189
