[{"OBJECT_NAME":"ONEWEB-0228","OBJECT_ID":"2021-045P","EPOCH":"2026-04-16T11:43:46.610688","MEAN_MOTION":13.15548052,"ECCENTRICITY":0.0001874,"INCLINATION":87.8954,"RA_OF_ASC_NODE":271.4832,"ARG_OF_PERICENTER":93.4927,"MEAN_ANOMALY":266.6418,"EPHEMERIS_TYPE":0,"CLASSIFICATION_TYPE":"U","NORAD_CAT_ID":48780,"ELEMENT_SET_NO":999,"REV_AT_EPOCH":23621,"BSTAR":-0.00037063000000000005,"MEAN_MOTION_DOT":-1.27e-06,"MEAN_MOTION_DDOT":0.0},{"OBJECT_NAME":"ONEWEB-0232","OBJECT_ID":"2021-045Q","EPOCH":"2026-04-16T16:35:38.070240","MEAN_MOTION":13.15546128,"ECCENTRICITY":0.0001759,"INCLINATION":87.8958,"RA_OF_ASC_NODE":271.4451,"ARG_OF_PERICENTER":93.6617,"MEAN_ANOMALY":266.4715,"EPHEMERIS_TYPE":0,"CLASSIFICATION_TYPE":"U","NORAD_CAT_ID":48781,"ELEMENT_SET_NO":999,"REV_AT_EPOCH":23656,"BSTAR":0.00061169,"MEAN_MOTION_DOT":2.43e-06,"MEAN_MOTION_DDOT":0.0},{"OBJECT_NAME":"ONEWEB-0231","OBJECT_ID":"2021-045R","EPOCH":"2026-04-16T17:53:13.279776","MEAN_MOTION":13.15546366,"ECCENTRICITY":0.0002127,"INCLINATION":87.8935,"RA_OF_ASC_NODE":271.454,"ARG_OF_PERICENTER":90.2743,"MEAN_ANOMALY":269.8631,"EPHEMERIS_TYPE":0,"CLASSIFICATION_TYPE":"U","NORAD_CAT_ID":48782,"ELEMENT_SET_NO":999,"REV_AT_EPOCH":23626,"BSTAR":0.0011747,"MEAN_MOTION_DOT":4.55e-06,"MEAN_MOTION_DDOT":0.0},{"OBJECT_NAME":"ONEWEB-0234","OBJECT_ID":"2021-045S","EPOCH":"2026-04-16T16:58:15.388320","MEAN_MOTION":13.15549195,"ECCENTRICITY":0.0001074,"INCLINATION":87.8946,"RA_OF_ASC_NODE":271.4401,"ARG_OF_PERICENTER":77.2664,"MEAN_ANOMALY":282.8586,"EPHEMERIS_TYPE":0,"CLASSIFICATION_TYPE":"U","NORAD_CAT_ID":48783,"ELEMENT_SET_NO":999,"REV_AT_EPOCH":23639,"BSTAR":-0.00021612,"MEAN_MOTION_DOT":-6.9e-07,"MEAN_MOTION_DDOT":0.0},{"OBJECT_NAME":"ONEWEB-0238","OBJECT_ID":"2021-045T","EPOCH":"2026-04-16T16:58:39.111168","MEAN_MOTION":13.15548369,"ECCENTRICITY":0.0001399,"INCLINATION":87.8937,"RA_OF_ASC_NODE":271.4331,"ARG_OF_PERICENTER":88.3759,"MEAN_ANOMALY":271.7532,"EPHEMERIS_TYPE":0,"CLASSIFICATION_TYPE":"U","NORAD_CAT_ID":48784,"ELEMENT_SET_NO":999,"REV_AT_EPOCH":23629,"BSTAR":-0.00023305,"MEAN_MOTION_DOT":-7.5e-07,"MEAN_MOTION_DDOT":0.0},{"OBJECT_NAME":"ONEWEB-0240","OBJECT_ID":"2021-045U","EPOCH":"2026-04-16T17:29:14.757792","MEAN_MOTION":13.15546556,"ECCENTRICITY":0.0001898,"INCLINATION":87.8951,"RA_OF_ASC_NODE":271.437,"ARG_OF_PERICENTER":85.0337,"MEAN_ANOMALY":275.101,"EPHEMERIS_TYPE":0,"CLASSIFICATION_TYPE":"U","NORAD_CAT_ID":48785,"ELEMENT_SET_NO":999,"REV_AT_EPOCH":23632,"BSTAR":-0.00019821000000000001,"MEAN_MOTION_DOT":-6.2e-07,"MEAN_MOTION_DDOT":0.0},{"OBJECT_NAME":"ONEWEB-0246","OBJECT_ID":"2021-045V","EPOCH":"2026-04-16T17:21:15.912576","MEAN_MOTION":13.15548106,"ECCENTRICITY":0.0001906,"INCLINATION":87.8947,"RA_OF_ASC_NODE":271.4448,"ARG_OF_PERICENTER":96.5991,"MEAN_ANOMALY":263.5357,"EPHEMERIS_TYPE":0,"CLASSIFICATION_TYPE":"U","NORAD_CAT_ID":48786,"ELEMENT_SET_NO":999,"REV_AT_EPOCH":23619,"BSTAR":8.5944e-06,"MEAN_MOTION_DOT":1.6e-07,"MEAN_MOTION_DDOT":0.0},{"OBJECT_NAME":"ONEWEB-0210","OBJECT_ID":"2021-045W","EPOCH":"2026-04-16T16:44:45.377952","MEAN_MOTION":13.15547469,"ECCENTRICITY":0.0002691,"INCLINATION":87.895,"RA_OF_ASC_NODE":271.4466,"ARG_OF_PERICENTER":97.4277,"MEAN_ANOMALY":262.7159,"EPHEMERIS_TYPE":0,"CLASSIFICATION_TYPE":"U","NORAD_CAT_ID":48787,"ELEMENT_SET_NO":999,"REV_AT_EPOCH":23623,"BSTAR":-3.323400000000001e-05,"MEAN_MOTION_DOT":0.0,"MEAN_MOTION_DDOT":0.0},{"OBJECT_NAME":"ONEWEB-0214","OBJECT_ID":"2021-045X","EPOCH":"2026-04-16T16:57:17.229888","MEAN_MOTION":13.15548868,"ECCENTRICITY":0.0002176,"INCLINATION":87.8948,"RA_OF_ASC_NODE":271.4409,"ARG_OF_PERICENTER":100.6434,"MEAN_ANOMALY":259.4941,"EPHEMERIS_TYPE":0,"CLASSIFICATION_TYPE":"U","NORAD_CAT_ID":48788,"ELEMENT_SET_NO":999,"REV_AT_EPOCH":23620,"BSTAR":-0.0007897,"MEAN_MOTION_DOT":-2.84e-06,"MEAN_MOTION_DDOT":0.0},{"OBJECT_NAME":"ONEWEB-0221","OBJECT_ID":"2021-045Y","EPOCH":"2026-04-16T17:07:34.280544","MEAN_MOTION":13.15548287,"ECCENTRICITY":0.0001956,"INCLINATION":87.8946,"RA_OF_ASC_NODE":271.4491,"ARG_OF_PERICENTER":90.9781,"MEAN_ANOMALY":269.1574,"EPHEMERIS_TYPE":0,"CLASSIFICATION_TYPE":"U","NORAD_CAT_ID":48789,"ELEMENT_SET_NO":999,"REV_AT_EPOCH":23629,"BSTAR":-0.00028327999999999996,"MEAN_MOTION_DOT":-9.4e-07,"MEAN_MOTION_DDOT":0.0},{"OBJECT_NAME":"ONEWEB-0213","OBJECT_ID":"2021-045Z","EPOCH":"2026-04-16T16:51:35.774496","MEAN_MOTION":13.15547355,"ECCENTRICITY":0.0002096,"INCLINATION":87.8947,"RA_OF_ASC_NODE":271.4551,"ARG_OF_PERICENTER":92.2252,"MEAN_ANOMALY":267.9119,"EPHEMERIS_TYPE":0,"CLASSIFICATION_TYPE":"U","NORAD_CAT_ID":48790,"ELEMENT_SET_NO":999,"REV_AT_EPOCH":23635,"BSTAR":-0.00016251,"MEAN_MOTION_DOT":-4.8e-07,"MEAN_MOTION_DDOT":0.0},{"OBJECT_NAME":"ONEWEB-0212","OBJECT_ID":"2021-045AA","EPOCH":"2026-04-16T18:08:00.803040","MEAN_MOTION":13.15551326,"ECCENTRICITY":0.0001713,"INCLINATION":87.895,"RA_OF_ASC_NODE":271.439,"ARG_OF_PERICENTER":95.174,"MEAN_ANOMALY":264.9585,"EPHEMERIS_TYPE":0,"CLASSIFICATION_TYPE":"U","NORAD_CAT_ID":48791,"ELEMENT_SET_NO":999,"REV_AT_EPOCH":23635,"BSTAR":0.00068996,"MEAN_MOTION_DOT":2.73e-06,"MEAN_MOTION_DDOT":0.0},{"OBJECT_NAME":"ONEWEB-0227","OBJECT_ID":"2021-045AB","EPOCH":"2026-04-16T18:06:53.743680","MEAN_MOTION":13.15548871,"ECCENTRICITY":0.0001829,"INCLINATION":87.8945,"RA_OF_ASC_NODE":271.4411,"ARG_OF_PERICENTER":92.5674,"MEAN_ANOMALY":267.5665,"EPHEMERIS_TYPE":0,"CLASSIFICATION_TYPE":"U","NORAD_CAT_ID":48792,"ELEMENT_SET_NO":999,"REV_AT_EPOCH":23630,"BSTAR":0.00045165,"MEAN_MOTION_DOT":1.83e-06,"MEAN_MOTION_DDOT":0.0},{"OBJECT_NAME":"ONEWEB-0226","OBJECT_ID":"2021-045AC","EPOCH":"2026-04-16T17:57:45.776736","MEAN_MOTION":13.15548372,"ECCENTRICITY":0.0002117,"INCLINATION":87.8936,"RA_OF_ASC_NODE":271.4486,"ARG_OF_PERICENTER":95.4267,"MEAN_ANOMALY":264.7105,"EPHEMERIS_TYPE":0,"CLASSIFICATION_TYPE":"U","NORAD_CAT_ID":48793,"ELEMENT_SET_NO":999,"REV_AT_EPOCH":23627,"BSTAR":0.00060504,"MEAN_MOTION_DOT":2.41e-06,"MEAN_MOTION_DDOT":0.0},{"OBJECT_NAME":"ONEWEB-0224","OBJECT_ID":"2021-045AD","EPOCH":"2026-04-16T17:05:17.048832","MEAN_MOTION":13.15547076,"ECCENTRICITY":0.0001661,"INCLINATION":87.894,"RA_OF_ASC_NODE":271.4918,"ARG_OF_PERICENTER":65.9891,"MEAN_ANOMALY":294.1413,"EPHEMERIS_TYPE":0,"CLASSIFICATION_TYPE":"U","NORAD_CAT_ID":48794,"ELEMENT_SET_NO":999,"REV_AT_EPOCH":23619,"BSTAR":-0.00017502000000000001,"MEAN_MOTION_DOT":-5.3e-07,"MEAN_MOTION_DDOT":0.0},{"OBJECT_NAME":"ONEWEB-0233","OBJECT_ID":"2021-045AE","EPOCH":"2026-04-16T11:43:22.656288","MEAN_MOTION":13.15548526,"ECCENTRICITY":0.0001972,"INCLINATION":87.8935,"RA_OF_ASC_NODE":271.545,"ARG_OF_PERICENTER":87.604,"MEAN_ANOMALY":272.5316,"EPHEMERIS_TYPE":0,"CLASSIFICATION_TYPE":"U","NORAD_CAT_ID":48795,"ELEMENT_SET_NO":999,"REV_AT_EPOCH":23618,"BSTAR":-0.00023331,"MEAN_MOTION_DOT":-7.5e-07,"MEAN_MOTION_DDOT":0.0}]